IRIDIUM 166             
1 43570U 18061B   23301.48946980  .00000115  00000+0  33851-4 0  9992
2 43570  86.3923  99.0899 0002017  97.8284 262.3141 14.34215735275417
IRIDIUM 158             
1 43571U 18061C   23301.52752659  .00000028  00000+0  29427-5 0  9994
2 43571  86.3925  99.0831 0002359  97.1282 263.0182 14.34216219275383
IRIDIUM 165             
1 43572U 18061D   23301.48312866  .00000475  00000+0  16247-3 0  9992
2 43572  86.3925  99.1297 0002405  97.7794 262.3675 14.34218019275409
IRIDIUM 155             
1 43573U 18061E   23301.51484315  .00000084  00000+0  22788-4 0  9990
2 43573  86.3920  99.0327 0001830  90.0563 270.0842 14.34217201275379
IRIDIUM 154             
1 43574U 18061F   23301.49581310  .00000149  00000+0  46030-4 0  9999
2 43574  86.3924  99.1274 0002260  86.0233 274.1221 14.34218770275427
IRIDIUM 163             
1 43575U 18061G   23301.40701527  .00000142  00000+0  43603-4 0  9991
2 43575  86.3922  99.1099 0002212  90.5643 269.5807 14.34219482275387
IRIDIUM 156             
1 43576U 18061H   23301.52119012  .00000140  00000+0  42760-4 0  9998
2 43576  86.3922  99.0680 0002021  97.3388 262.8038 14.34218153275388
IRIDIUM 164             
1 43577U 18061J   23301.50215637  .00000473  00000+0  16183-3 0  9995
2 43577  86.3924  99.1016 0002189  96.1688 263.9757 14.34217400275430
